NORAD_CAT_ID,OBJECT_NAME,OBJECT_TYPE,EPOCH,MEAN_MOTION,ECCENTRICITY,INCLINATION,RA_OF_ASC_NODE,ARG_OF_PERICENTER,MEAN_ANOMALY,BSTAR,MEAN_MOTION_DOT,MEAN_MOTION_DDOT,TLE_LINE0,TLE_LINE1,TLE_LINE2,SEMIMAJOR_AXIS,PERIOD,APOGEE,PERIGEE,DECAYED
52561.0,STARLINK-3955,PAYLOAD,2023-06-10 03:49:54,15.08843167,9.9e-05,53.2181,319.1396,86.0178,274.0928,-8.8946e-07,-3.02e-06,0.0,0 STARLINK-3955,1 52561U 22051AE  23161.15966430 -.00000302  00000-0 -88946-6 0  9994,2 52561  53.2181 319.1396 0000990  86.0178 274.0928 15.08843167 59943,6917.871,95.437,540.421,539.051,0.0
52561.0,STARLINK-3955,PAYLOAD,2023-06-10 10:11:27,15.08837506,0.0001023,53.2178,317.9501,85.779,274.3319,7.7098e-06,-1.65e-06,0.0,0 STARLINK-3955,1 52561U 22051AE  23161.42462937 -.00000165  00000-0  77098-5 0  9998,2 52561  53.2178 317.9501 0001023  85.7790 274.3319 15.08837506 59911,6917.888,95.438,540.461,539.045,0.0
52561.0,STARLINK-3955,PAYLOAD,2023-06-10 19:43:46,15.08845827,0.0001244,53.2176,316.1664,98.3194,261.7939,2.903e-05,1.74e-06,0.0,0 STARLINK-3955,1 52561U 22051AE  23161.82206332  .00000174  00000-0  29030-4 0  9998,2 52561  53.2176 316.1664 0001244  98.3194 261.7939 15.08845827 59972,6917.863,95.437,540.588,538.867,0.0
52561.0,STARLINK-3955,PAYLOAD,2023-06-11 10:02:14,15.08844844,0.0001194,53.218,313.4914,80.7621,279.3506,5.2688e-05,5.51e-06,0.0,0 STARLINK-3955,1 52561U 22051AE  23162.41822400  .00000551  00000-0  52688-4 0  9998,2 52561  53.2180 313.4914 0001194  80.7621 279.3506 15.08844844 60132,6917.866,95.437,540.557,538.905,0.0
52561.0,STARLINK-3955,PAYLOAD,2023-06-11 17:59:09,15.08848564,0.0001039,53.2176,312.004,82.0816,278.0294,0.00014027,1.946e-05,0.0,0 STARLINK-3955,1 52561U 22051AE  23162.74941822  .00001946  00000-0  14027-3 0  9997,2 52561  53.2176 312.0040 0001039  82.0816 278.0294 15.08848564 60112,6917.854,95.437,540.438,539.0,0.0
52561.0,STARLINK-3955,PAYLOAD,2023-06-12 03:31:28,15.0884354,0.0001005,53.2175,310.2196,83.5081,276.6026,8.7473e-05,1.105e-05,0.0,0 STARLINK-3955,1 52561U 22051AE  23163.14686161  .00001105  00000-0  87473-4 0  9997,2 52561  53.2175 310.2196 0001005  83.5081 276.6026 15.08843540 60178,6917.87,95.437,540.43,539.039,0.0
52561.0,STARLINK-3955,PAYLOAD,2023-06-12 16:14:34,15.08825516,0.0001038,53.2178,307.8411,85.7326,274.3785,0.00017051,2.426e-05,0.0,0 STARLINK-3955,1 52561U 22051AE  23163.67679277  .00002426  00000-0  17051-3 0  9996,2 52561  53.2178 307.8411 0001038  85.7326 274.3785 15.08825516 60322,6917.925,95.438,540.508,539.072,0.0
52561.0,STARLINK-3955,PAYLOAD,2023-06-13 09:43:48,15.08836907,0.0001019,53.2194,304.5701,91.3762,268.7346,5.9916e-05,6.66e-06,0.0,0 STARLINK-3955,1 52561U 22051AE  23164.40542647  .00000666  00000-0  59916-4 0  9999,2 52561  53.2194 304.5701 0001019  91.3762 268.7346 15.08836907 60430,6917.89,95.438,540.46,539.05,0.0
52561.0,STARLINK-3955,PAYLOAD,2023-06-14 12:45:22,15.08835347,0.0001211,53.2182,299.5147,91.6702,268.4429,6.2319e-05,7.04e-06,0.0,0 STARLINK-3955,1 52561U 22051AE  23165.53150813  .00000704  00000-0  62319-4 0  9998,2 52561  53.2182 299.5147 0001211  91.6702 268.4429 15.08835347 60532,6917.895,95.438,540.597,538.922,0.0
52561.0,STARLINK-3955,PAYLOAD,2023-06-14 15:56:08,15.08840766,0.0001101,53.2179,298.9201,90.3511,269.7607,0.00011564,1.553e-05,0.0,0 STARLINK-3955,1 52561U 22051AE  23165.66398319  .00001553  00000-0  11564-3 0  9995,2 52561  53.2179 298.9201 0001101  90.3511 269.7607 15.08840766 60627,6917.878,95.438,540.505,538.981,0.0
52561.0,STARLINK-3955,PAYLOAD,2023-06-15 09:25:23,15.08834226,0.0001308,53.2181,295.6512,87.2218,272.8924,4.2057e-06,-2.21e-06,0.0,0 STARLINK-3955,1 52561U 22051AE  23166.39263185 -.00000221  00000-0  42057-5 0  9993,2 52561  53.2181 295.6512 0001308  87.2218 272.8924 15.08834226 60730,6917.898,95.438,540.668,538.858,0.0
52561.0,STARLINK-3955,PAYLOAD,2023-06-15 12:36:09,15.08834302,0.0001184,53.2177,295.0554,89.6607,270.4521,-3.5039e-06,-3.44e-06,0.0,0 STARLINK-3955,1 52561U 22051AE  23166.52511200 -.00000344  00000-0 -35039-5 0  9991,2 52561  53.2177 295.0554 0001184  89.6607 270.4521 15.08834302 60681,6917.898,95.438,540.582,538.944,0.0
52561.0,STARLINK-3955,PAYLOAD,2023-06-15 14:11:32,15.08835318,0.0001192,53.218,294.7586,89.8507,270.2622,1.2414e-05,-9e-07,0.0,0 STARLINK-3955,1 52561U 22051AE  23166.59135126 -.00000090  00000-0  12414-4 0  9995,2 52561  53.2180 294.7586 0001192  89.8507 270.2622 15.08835318 60695,6917.895,95.438,540.584,538.935,0.0
52561.0,STARLINK-3955,PAYLOAD,2023-06-16 01:19:14,15.0884043,0.0001173,53.2179,292.6767,85.3398,274.7728,5.407e-05,5.73e-06,0.0,0 STARLINK-3955,1 52561U 22051AE  23167.05502749  .00000573  00000-0  54070-4 0  9995,2 52561  53.2179 292.6767 0001173  85.3398 274.7728 15.08840430 60832,6917.879,95.438,540.556,538.933,0.0
52561.0,STARLINK-3955,PAYLOAD,2023-06-16 12:26:55,15.08850879,0.0001003,53.2179,290.595,92.3133,267.7974,0.00012088,1.637e-05,0.0,0 STARLINK-3955,1 52561U 22051AE  23167.51869924  .00001637  00000-0  12088-3 0  9991,2 52561  53.2179 290.5950 0001003  92.3133 267.7974 15.08850879 60833,6917.847,95.437,540.406,539.018,0.0
52561.0,STARLINK-3955,PAYLOAD,2023-06-16 14:02:18,15.08853622,9.88e-05,53.2178,290.2975,90.858,269.2526,0.00014906,2.086e-05,0.0,0 STARLINK-3955,1 52561U 22051AE  23167.58493706  .00002086  00000-0  14906-3 0  9999,2 52561  53.2178 290.2975 0000988  90.8580 269.2526 15.08853622 60914,6917.839,95.437,540.387,539.02,0.0
52561.0,STARLINK-3955,PAYLOAD,2023-06-16 17:13:04,15.08861651,0.0001009,53.2178,289.7027,92.5466,267.5642,0.00022222,3.253e-05,0.0,0 STARLINK-3955,1 52561U 22051AE  23167.71740975  .00003253  00000-0  22222-3 0  9994,2 52561  53.2178 289.7027 0001009  92.5466 267.5642 15.08861651 60867,6917.814,95.436,540.377,538.981,0.0
52561.0,STARLINK-3955,PAYLOAD,2023-06-17 01:10:01,15.08840537,0.0002108,53.2168,288.2159,75.7748,284.3478,4.8713e-05,4.87e-06,0.0,0 STARLINK-3955,1 52561U 22051AE  23168.04862748  .00000487  00000-0  48713-4 0  9994,2 52561  53.2168 288.2159 0002108  75.7748 284.3478 15.08840537 60980,6917.879,95.438,541.202,538.285,0.0
52561.0,STARLINK-3955,PAYLOAD,2023-06-17 09:06:58,15.08818365,0.0001381,53.2171,286.7292,75.4649,284.6497,-0.00016597,-2.927e-05,0.0,0 STARLINK-3955,1 52561U 22051AE  23168.37983798 -.00002927  00000-0 -16597-3 0  9996,2 52561  53.2171 286.7292 0001381  75.4649 284.6497 15.08818365 61039,6917.947,95.439,540.767,538.856,0.0
52561.0,STARLINK-3955,PAYLOAD,2023-06-17 17:03:53,15.08822312,0.0001326,53.2171,285.2423,74.1259,285.9879,-0.00015184,-2.702e-05,0.0,0 STARLINK-3955,1 52561U 22051AE  23168.71103956 -.00002702  00000-0 -15184-3 0  9996,2 52561  53.2171 285.2423 0001326  74.1259 285.9879 15.08822312 61014,6917.934,95.439,540.717,538.882,0.0
52561.0,STARLINK-3955,PAYLOAD,2023-06-18 01:00:49,15.08830955,0.0001134,53.217,283.7557,72.5557,287.5559,2.2772e-05,7.5e-07,0.0,0 STARLINK-3955,1 52561U 22051AE  23169.04223622  .00000075  00000-0  22772-4 0  9997,2 52561  53.2170 283.7557 0001134  72.5557 287.5559 15.08830955 61132,6917.908,95.438,540.558,538.989,0.0
52561.0,STARLINK-3955,PAYLOAD,2023-06-18 07:22:21,15.08836849,0.0001116,53.2166,282.5659,68.0324,292.0787,0.00030526,4.573e-05,0.0,0 STARLINK-3955,1 52561U 22051AE  23169.30719670  .00004573  00000-0  30526-3 0  9991,2 52561  53.2166 282.5659 0001116  68.0324 292.0787 15.08836849 61108,6917.89,95.438,540.527,538.983,0.0
52561.0,STARLINK-3955,PAYLOAD,2023-06-18 13:43:54,15.08846192,0.0001131,53.2164,281.3767,62.3487,297.762,0.0011359,0.00017839,0.0,0 STARLINK-3955,1 52561U 22051AE  23169.57215932  .00017839  00000-0  11359-2 0  9993,2 52561  53.2164 281.3767 0001131  62.3487 297.7620 15.08846192 61219,6917.861,95.437,540.509,538.944,0.0
52561.0,STARLINK-3955,PAYLOAD,2023-06-19 07:13:08,15.08855107,0.0001244,53.2167,278.1064,70.4474,289.6652,0.00063915,9.903e-05,0.0,0 STARLINK-3955,1 52561U 22051AE  23170.30079587  .00009903  00000-0  63915-3 0  9999,2 52561  53.2167 278.1064 0001244  70.4474 289.6652 15.08855107 61320,6917.834,95.437,540.56,538.839,0.0
52561.0,STARLINK-3955,PAYLOAD,2023-06-19 13:34:41,15.0885705,0.0001253,53.2165,276.9171,69.1373,290.9753,0.00055542,8.567e-05,0.0,0 STARLINK-3955,1 52561U 22051AE  23170.56575336  .00008567  00000-0  55542-3 0  9992,2 52561  53.2165 276.9171 0001253  69.1373 290.9753 15.08857050 61298,6917.828,95.436,540.56,538.826,0.0
52561.0,STARLINK-3955,PAYLOAD,2023-06-20 00:42:22,15.08860579,9.63e-05,53.216,274.8355,57.3562,302.7523,0.00055825,8.613e-05,0.0,0 STARLINK-3955,1 52561U 22051AE  23171.02942994  .00008613  00000-0  55825-3 0  9998,2 52561  53.2160 274.8355 0000963  57.3562 302.7523 15.08860579 61433,6917.817,95.436,540.349,539.016,0.0
52561.0,STARLINK-3955,PAYLOAD,2023-06-20 07:03:55,15.0885153,0.0001381,53.2159,273.6458,84.357,275.758,0.00042152,6.429e-05,0.0,0 STARLINK-3955,1 52561U 22051AE  23171.29439218  .00006429  00000-0  42152-3 0  9999,2 52561  53.2159 273.6458 0001381  84.3570 275.7580 15.08851530 61479,6917.845,95.437,540.666,538.755,0.0
52561.0,STARLINK-3955,PAYLOAD,2023-06-20 16:36:14,15.08845783,0.000119,53.2163,271.8625,76.175,283.9374,0.00033677,5.077e-05,0.0,0 STARLINK-3955,1 52561U 22051AE  23171.69183222  .00005077  00000-0  33677-3 0  9994,2 52561  53.2163 271.8625 0001190  76.1750 283.9374 15.08845783 61539,6917.863,95.437,540.551,538.904,0.0
52561.0,STARLINK-3955,PAYLOAD,2023-06-21 11:40:51,15.08846831,0.0001181,53.2166,268.2932,70.7996,289.3124,0.0001373,1.898e-05,0.0,0 STARLINK-3955,1 52561U 22051AE  23172.48671179  .00001898  00000-0  13730-3 0  9990,2 52561  53.2166 268.2932 0001181  70.7996 289.3124 15.08846831 61656,6917.86,95.437,540.542,538.908,0.0
52561.0,STARLINK-3955,PAYLOAD,2023-06-21 13:16:14,15.08850732,0.0001071,53.2163,267.9953,74.2291,285.8819,0.00026739,3.971e-05,0.0,0 STARLINK-3955,1 52561U 22051AE  23172.55295005  .00003971  00000-0  26739-3 0  9995,2 52561  53.2163 267.9953 0001071  74.2291 285.8819 15.08850732 61597,6917.848,95.437,540.453,538.972,0.0
